OBJECT_NAME,OBJECT_ID,EPOCH,MEAN_MOTION,ECCENTRICITY,INCLINATION,RA_OF_ASC_NODE,ARG_OF_PERICENTER,MEAN_ANOMALY,EPHEMERIS_TYPE,CLASSIFICATION_TYPE,NORAD_CAT_ID,ELEMENT_SET_NO,REV_AT_EPOCH,BSTAR,MEAN_MOTION_DOT,MEAN_MOTION_DDOT
IRIDIUM 154,2018-061F,2026-07-19T02:46:46.493760,14.34217329,.00021946,86.3936,43.4508,89.1021,271.0426,0,U,43574,999,41798,-.499628E-6,.18E-6,0
IRIDIUM 163,2018-061G,2026-07-19T02:19:22.507392,14.34217670,.00021253,86.3935,43.3729,88.0953,272.0486,0,U,43575,999,41795,.11886351E-4,.53E-6,0
IRIDIUM 156,2018-061H,2026-07-19T06:44:14.286624,14.34218762,.00021368,86.3936,43.3032,93.4767,266.6673,0,U,43576,999,41797,.33578238E-4,.114E-5,0
IRIDIUM 164,2018-061J,2026-07-19T06:16:50.510208,14.34217317,.00022346,86.3934,43.3523,88.6194,271.5258,0,U,43577,999,41801,-.44365824E-4,-.104E-5,0
IRIDIUM 159,2018-061K,2026-07-19T02:10:14.429856,14.34217764,.00021267,86.3935,43.3601,87.0538,273.0901,0,U,43578,999,41795,.6776145E-5,.39E-6,0
IRIDIUM 180,2019-002A,2026-07-18T21:08:06.933984,14.34217545,.00020457,86.3991,340.3494,91.2772,268.8658,0,U,43922,999,39353,-.24857995E-4,-.5E-6,0
IRIDIUM 176,2019-002B,2026-07-18T21:36:02.133216,14.72251771,.00023425,86.6117,340.2800,91.5413,268.6072,0,U,43923,999,40391,.57290135E-4,.386E-5,0
IRIDIUM 168,2019-002C,2026-07-18T22:39:27.048384,14.34217598,.00021922,86.3998,340.4005,90.7696,269.3751,0,U,43924,999,39352,.37747438E-4,.125E-5,0
IRIDIUM 173,2019-002D,2026-07-18T22:21:10.944288,14.34218315,.00021298,86.3994,340.2935,92.5844,267.5596,0,U,43925,999,39350,.47157322E-4,.152E-5,0
IRIDIUM 169,2019-002E,2026-07-18T11:35:08.653920,14.38605573,.00020977,86.4236,12.1048,102.7851,257.3582,0,U,43926,999,39472,.15176042E-4,.66E-6,0
IRIDIUM 172,2019-002F,2026-07-19T03:13:26.951808,14.34218203,.00021826,86.3996,340.2168,91.8543,268.2903,0,U,43927,999,39354,.25724487E-4,.92E-6,0
IRIDIUM 175,2019-002G,2026-07-19T05:30:56.428128,14.43628529,.00054724,86.4508,277.1277,107.6533,252.5266,0,U,43928,999,40360,.44743501E-4,.172E-5,0
IRIDIUM 171,2019-002H,2026-07-18T20:04:10.953696,14.34217946,.00022797,86.4006,340.6509,95.3979,264.7477,0,U,43929,999,39349,.14573271E-4,.61E-6,0
IRIDIUM 170,2019-002J,2026-07-18T21:44:55.069152,14.72252377,.00022232,86.6115,340.2795,88.8960,271.2512,0,U,43930,999,40392,.57208243E-4,.385E-5,0
IRIDIUM 167,2019-002K,2026-07-18T21:35:30.967008,14.34217768,.00023629,86.3997,340.3375,98.1583,261.9881,0,U,43931,999,39350,.6916492E-5,.39E-6,0
IRIDIUM 181,2023-068S,2026-07-19T01:36:55.184832,14.43308329,.00023802,86.4474,43.4579,84.1407,276.0065,0,U,56726,999,16703,.36201095E-4,.142E-5,0
IRIDIUM 177,2023-068T,2026-07-19T00:44:24.803232,14.80027601,.00022185,86.1988,313.6739,97.3887,262.7586,0,U,56727,999,17107,.65201149E-4,.52E-5,0
IRIDIUM 174,2023-068U,2026-07-19T02:20:35.645856,14.72257399,.00019301,86.6123,340.3500,91.0591,269.0847,0,U,56728,999,17071,.52848866E-4,.358E-5,0
IRIDIUM 178,2023-068V,2026-07-19T05:20:39.771456,14.80022615,.00021089,86.6538,11.9711,91.6690,268.4773,0,U,56729,999,17110,.20661644E-4,.183E-5,0
IRIDIUM 179,2023-068W,2026-07-19T00:20:53.151648,14.80023631,.00023737,86.6770,21.1308,93.7637,266.3856,0,U,56730,999,17107,.11013776E-4,.11E-5,0
